*******************************************************************************
Ephemeris / WWW_USER Mon Mar 10 08:34:44 2025 Pasadena, USA      / Horizons    
*******************************************************************************
Target body name: (2017 UW51)                     {source: JPL#9}
Center body name: Earth (399)                     {source: DE441}
Center-site name: Mauna Kea
*******************************************************************************
Start time      : A.D. 2019-Jan-08 04:08:00.0000 UT      
Stop  time      : A.D. 2019-Jan-08 16:48:00.0000 UT      
Step-size       : 1 minutes
*******************************************************************************
Target pole/equ : undefined
Target radii    : undefined                                                    
Center geodetic : 204.5278, 19.8260847, 4.21024   {E-lon(deg),Lat(deg),Alt(km)}
Center cylindric: 204.5278, 6006.35451, 2151.0229 {E-lon(deg),Dxy(km),Dz(km)}
Center pole/equ : ITRF93                          {East-longitude positive}
Center radii    : 6378.137, 6378.137, 6356.752 km {Equator_a, b, pole_c}       
Target primary  : Sun
Vis. interferer : MOON (R_eq= 1737.400) km        {source: DE441}
Rel. light bend : Sun                             {source: DE441}
Rel. lght bnd GM: 1.3271E+11 km^3/s^2                                          
Small-body perts: Yes                             {source: SB441-N16}
Atmos refraction: NO (AIRLESS)
RA format       : HMS
Time format     : CAL 
Calendar mode   : Mixed Julian/Gregorian
RTS-only print  : NO       
EOP file        : eop.250307.p250603                                           
EOP coverage    : DATA-BASED 1962-JAN-20 TO 2025-MAR-07. PREDICTS-> 2025-JUN-02
Units conversion: 1 au= 149597870.700 km, c= 299792.458 km/s, 1 day= 86400.0 s 
Table cut-offs 1: Elevation (-90.0deg=NO ),Airmass (>38.000=NO), Daylight (YES)
Table cut-offs 2: Solar elongation (  0.0,180.0=NO ),Local Hour Angle( 0.0=NO )
Table cut-offs 3: RA/DEC angular rate (     0.0=NO )                           
*******************************************************************************
Initial IAU76/J2000 heliocentric ecliptic osculating elements (au, days, deg.):
  EPOCH=  2458075.5 ! 2017-Nov-18.00 (TDB)         Residual RMS= .20188        
   EC= .977323227404683    QR= 3.132710376610715   TP= 2458155.1551369466      
   OM= 241.7154477774366   W=  216.6888678209022   IN= 144.2025603349357       
  Equivalent ICRF heliocentric cartesian coordinates (au, au/d):
   X= 2.139353138138251E+00  Y= 2.375029509283225E+00  Z= 4.232007070438896E-01
  VX= 5.707101564767909E-03 VY=-6.350221743649190E-03 VZ=-1.041670648532765E-02
Asteroid physical parameters (km, seconds, rotational period in hours):        
   GM= n.a.                RAD= n.a.               ROTPER= n.a.                
   H= 15.3                 G= .150                 B-V= n.a.                   
                           ALBEDO= n.a.            STYP= n.a.                  
*******************************************************************************
 Date__(UT)__HR:MN     R.A._________(ICRF)_________DEC
******************************************************
$$SOE
 2019-Jan-08 16:26 N   21 34 55.489670 -45 23 14.61107
 2019-Jan-08 16:27 N   21 34 55.503283 -45 23 14.42199
 2019-Jan-08 16:28 N   21 34 55.516893 -45 23 14.23293
 2019-Jan-08 16:29 N   21 34 55.530501 -45 23 14.04388
 2019-Jan-08 16:30 N   21 34 55.544107 -45 23 13.85485
 2019-Jan-08 16:31 N   21 34 55.557711 -45 23 13.66583
 2019-Jan-08 16:32 N   21 34 55.571312 -45 23 13.47683
 2019-Jan-08 16:33 N   21 34 55.584912 -45 23 13.28784
 2019-Jan-08 16:34 N   21 34 55.598509 -45 23 13.09886
 2019-Jan-08 16:35 C   21 34 55.612104 -45 23 12.90990
 2019-Jan-08 16:36 C   21 34 55.625696 -45 23 12.72095
 2019-Jan-08 16:37 C   21 34 55.639287 -45 23 12.53202
 2019-Jan-08 16:38 C   21 34 55.652875 -45 23 12.34310
 2019-Jan-08 16:39 C   21 34 55.666461 -45 23 12.15419
 2019-Jan-08 16:40 C   21 34 55.680045 -45 23 11.96530
 2019-Jan-08 16:41 C   21 34 55.693626 -45 23 11.77642
 2019-Jan-08 16:42 C   21 34 55.707205 -45 23 11.58756
 2019-Jan-08 16:43 C   21 34 55.720782 -45 23 11.39870
 2019-Jan-08 16:44 C   21 34 55.734357 -45 23 11.20986
 2019-Jan-08 16:45 C   21 34 55.747929 -45 23 11.02104
 2019-Jan-08 16:46 C   21 34 55.761499 -45 23 10.83223
 2019-Jan-08 16:47 C   21 34 55.775067 -45 23 10.64343
 2019-Jan-08 16:48 C   21 34 55.788632 -45 23 10.45464
